MEAN_MOTION;ECCENTRICITY;INCLINATION;RA_OF_ASC_NODE;ARG_OF_PERICENTER;MEAN_ANOMALY;BSTAR;MEAN_MOTION_DOT;MEAN_MOTION_DDOT;TYPE
14.34217696;0.0002321;86.3924;84.2249;97.5047;262.6413;1.5646E-5;6.4E-7;0;Iridium
14.34217728;0.0002323;86.3924;84.0497;97.2774;262.8686;1.6691E-5;6.7E-7;0;Iridium
14.34217728;0.0002323;86.3924;84.0497;97.2774;262.8686;1.6691E-5;6.7E-7;0;Iridium
14.3421778;0.0002333;86.3924;83.8745;97.1935;262.9526;1.7863E-5;7.0E-7;0;Iridium
14.34217781;0.0002338;86.3924;83.7869;97.133;263.0132;1.6942E-5;6.7E-7;0;Iridium
14.34217814;0.0002339;86.3924;83.6409;97.0235;263.1227;1.7439E-5;6.9E-7;0;Iridium
14.34217819;0.0002339;86.3924;83.6117;96.9531;263.1931;1.7351E-5;6.8E-7;0;Iridium
14.34217844;0.0002345;86.3924;83.4657;96.7638;263.3825;1.7301E-5;6.8E-7;0;Iridium
14.34217835;0.0002351;86.3924;83.4074;96.8122;263.3341;1.5691E-5;6.4E-7;0;Iridium
14.34217861;0.0002353;86.3925;83.2322;96.7754;263.3709;1.5451E-5;6.3E-7;0;Iridium
14.34217861;0.0002353;86.3925;83.2322;96.7754;263.3709;1.5451E-5;6.3E-7;0;Iridium
14.34217879;0.0002363;86.3925;83.0278;96.6376;263.5089;1.3593E-5;5.8E-7;0;Iridium
14.34217879;0.0002363;86.3925;83.0278;96.6376;263.5089;1.3593E-5;5.8E-7;0;Iridium
14.34217915;0.0002368;86.3925;82.8234;96.5526;263.5939;1.3148E-5;5.7E-7;0;Iridium
14.34217915;0.0002368;86.3925;82.8234;96.5526;263.5939;1.3148E-5;5.7E-7;0;Iridium
14.34217935;0.0002369;86.3925;82.7942;96.4833;263.6632;1.3332E-5;5.7E-7;0;Iridium
14.34217935;0.0002369;86.3925;82.7942;96.4833;263.6632;1.3332E-5;5.7E-7;0;Iridium
14.34217979;0.0002391;86.3926;82.3854;96.3038;263.843;1.0364E-5;4.9E-7;0;Iridium
14.34217989;0.0002404;86.3926;82.181;96.1597;263.9873;8.1368E-6;4.3E-7;0;Iridium
14.34218021;0.0002408;86.3927;82.0058;96.0029;264.1441;8.2577E-6;4.3E-7;0;Iridium
14.34218021;0.0002408;86.3927;82.0058;96.0029;264.1441;8.2577E-6;4.3E-7;0;Iridium
14.34218084;0.0002412;86.3927;81.8015;95.7566;264.3905;8.5485E-6;4.4E-7;0;Iridium
14.34218098;0.0002414;86.3927;81.7431;95.7366;264.4105;7.7642E-6;4.2E-7;0;Iridium
14.34218127;0.0002416;86.3927;81.5387;95.5154;264.6318;7.3889E-6;4.0E-7;0;Iridium
14.34218127;0.0002416;86.3927;81.5387;95.5154;264.6318;7.3889E-6;4.0E-7;0;Iridium
14.34218169;0.0002423;86.3928;81.3635;95.3198;264.8274;7.9824E-6;4.2E-7;0;Iridium
14.34218174;0.0002424;86.3928;81.3051;95.2259;264.9213;7.3994E-6;4.1E-7;0;Iridium
14.34218178;0.0002429;86.3928;81.0715;95.0102;265.1371;6.3159E-6;3.7E-7;0;Iridium
14.34218198;0.0002433;86.3928;80.9547;94.9538;265.1936;6.5292E-6;3.8E-7;0;Iridium
14.34218199;0.0002438;86.3928;80.8671;94.9029;265.2445;6.2403E-6;3.7E-7;0;Iridium
14.34218225;0.0002441;86.3929;80.7212;94.7736;265.3739;6.9189E-6;3.9E-7;0;Iridium
14.34218226;0.0002442;86.3929;80.692;94.754;265.3935;6.73E-6;3.9E-7;0;Iridium
14.3421822;0.0002449;86.3929;80.5752;94.5466;265.601;6.5925E-6;3.8E-7;0;Iridium
14.34218233;0.0002454;86.3929;80.4292;94.5475;265.6001;6.7811E-6;3.9E-7;0;Iridium
14.34218245;0.0002455;86.393;80.2832;94.2971;265.8505;6.239E-6;3.7E-7;0;Iridium
14.34218245;0.0002455;86.393;80.2832;94.2971;265.8505;6.239E-6;3.7E-7;0;Iridium
14.34218267;0.0002458;86.393;80.1373;94.0794;266.0683;7.5013E-6;4.1E-7;0;Iridium
14.34218274;0.0002458;86.393;80.1081;94.0798;266.0679;7.336E-6;4.0E-7;0;Iridium
14.34218275;0.0002462;86.3931;80.0205;94.1033;266.0444;7.464E-6;4.1E-7;0;Iridium
14.34218333;0.0002461;86.3931;79.8745;94.0131;266.1346;1.066E-5;5.0E-7;0;Iridium
14.34218333;0.0002461;86.3931;79.8745;94.0131;266.1346;1.066E-5;5.0E-7;0;Iridium
14.3421838;0.0002468;86.3931;79.7578;93.786;266.3618;1.5253E-5;6.3E-7;0;Iridium
14.34218405;0.0002468;86.3931;79.6994;93.7692;266.3786;1.5712E-5;6.4E-7;0;Iridium
14.3421841;0.0002471;86.3931;79.6118;93.8114;266.3365;1.5569E-5;6.3E-7;0;Iridium
14.34218434;0.0002472;86.3932;79.4658;93.6237;266.5241;1.5387E-5;6.3E-7;0;Iridium
14.34218434;0.0002472;86.3932;79.4658;93.6237;266.5241;1.5387E-5;6.3E-7;0;Iridium
14.34218485;0.0002479;86.3932;79.3199;93.3973;266.7506;1.8603E-5;7.2E-7;0;Iridium
14.34218503;0.0002479;86.3932;79.2615;93.317;266.8309;1.8256E-5;7.1E-7;0;Iridium
14.34218506;0.0002482;86.3933;79.1739;93.3098;266.8381;1.8813E-5;7.2E-7;0;Iridium
14.34218529;0.0002481;86.3933;79.0863;93.2142;266.9338;1.8815E-5;7.2E-7;0;Iridium
14.34218541;0.0002481;86.3933;79.0279;93.1014;267.0465;1.8582E-5;7.2E-7;0;Iridium
14.34218551;0.0002484;86.3933;78.9987;93.0023;267.1457;1.9234E-5;7.4E-7;0;Iridium
14.34218528;0.0002487;86.3933;78.9403;92.9516;267.1964;1.7528E-5;6.9E-7;0;Iridium
14.3421855;0.0002486;86.3933;78.882;92.9279;267.2202;1.804E-5;7.0E-7;0;Iridium
14.34218557;0.0002486;86.3933;78.8528;92.8833;267.2647;1.7607E-5;6.9E-7;0;Iridium
14.3421856;0.0002487;86.3933;78.8236;92.8646;267.2835;1.7214E-5;6.8E-7;0;Iridium
14.34218585;0.0002486;86.3934;78.6193;92.6778;267.4702;1.6957E-5;6.7E-7;0;Iridium
14.34218585;0.0002486;86.3934;78.6193;92.6778;267.4702;1.6957E-5;6.7E-7;0;Iridium
14.34218606;0.0002491;86.3934;78.4441;92.4497;267.6984;1.6238E-5;6.5E-7;0;Iridium
14.3421865;0.0002494;86.3934;78.2106;92.2922;267.856;1.594E-5;6.4E-7;0;Iridium
14.3421865;0.0002494;86.3934;78.2106;92.2922;267.856;1.594E-5;6.4E-7;0;Iridium
14.34218664;0.00025;86.3935;78.0938;92.1058;268.0424;1.5947E-5;6.4E-7;0;Iridium
14.3421869;0.00025;86.3935;78.0355;92.0626;268.0856;1.6262E-5;6.5E-7;0;Iridium
14.34218705;0.0002505;86.3935;77.9187;92.013;268.1352;1.6511E-5;6.6E-7;0;Iridium
14.34218742;0.0002504;86.3935;77.802;91.8082;268.3401;1.622E-5;6.5E-7;0;Iridium
14.34218742;0.0002504;86.3935;77.802;91.8082;268.3401;1.622E-5;6.5E-7;0;Iridium
14.34218796;0.0002508;86.3936;77.6268;91.5796;268.5687;1.7035E-5;6.7E-7;0;Iridium
14.34218807;0.0002508;86.3936;77.5977;91.557;268.5913;1.6681E-5;6.7E-7;0;Iridium
14.34218851;0.0002515;86.3936;77.5101;91.5916;268.5568;1.8747E-5;7.2E-7;0;Iridium
14.34218904;0.0002513;86.3937;77.3642;91.3511;268.7973;1.8849E-5;7.3E-7;0;Iridium
14.34218904;0.0002513;86.3937;77.3642;91.3511;268.7973;1.8849E-5;7.3E-7;0;Iridium
14.34218957;0.0002516;86.3937;77.2182;91.1332;269.0152;1.9883E-5;7.5E-7;0;Iridium
14.3421897;0.0002516;86.3937;77.1891;91.115;269.0334;1.9528E-5;7.4E-7;0;Iridium
14.34219009;0.0002519;86.3938;77.1015;91.137;269.0114;2.0881E-5;7.8E-7;0;Iridium
14.34219063;0.0002518;86.3938;76.9556;90.9174;269.231;2.0549E-5;7.7E-7;0;Iridium
14.34219063;0.0002518;86.3938;76.9556;90.9174;269.231;2.0549E-5;7.7E-7;0;Iridium
14.3421907;0.0002524;86.3938;76.8388;90.7553;269.3932;1.9526E-5;7.4E-7;0;Iridium
14.34219085;0.0002523;86.3939;76.7805;90.7417;269.4068;1.8351E-5;7.1E-7;0;Iridium
14.34219114;0.0002525;86.3939;76.6929;90.751;269.3975;1.8933E-5;7.3E-7;0;Iridium
14.34219161;0.0002524;86.394;76.547;90.518;269.6305;1.8512E-5;7.2E-7;0;Iridium
14.34219161;0.0002524;86.394;76.547;90.518;269.6305;1.8512E-5;7.2E-7;0;Iridium
14.3421917;0.0002529;86.394;76.3719;90.2646;269.8839;1.5622E-5;6.4E-7;0;Iridium
14.34219179;0.0002529;86.394;76.3427;90.2362;269.9123;1.5157E-5;6.2E-7;0;Iridium
14.3421919;0.0002531;86.3941;76.2551;90.2236;269.925;1.5556E-5;6.3E-7;0;Iridium
14.34219222;0.0002529;86.3941;76.1384;90.028;270.1205;1.4903E-5;6.2E-7;0;Iridium
14.34219226;0.0002531;86.3942;76.08;89.9256;270.2229;1.4265E-5;6.0E-7;0;Iridium
14.34219234;0.0002533;86.3942;75.9925;89.8165;270.3321;1.4021E-5;5.9E-7;0;Iridium
14.34219263;0.0002531;86.3942;75.9341;89.7648;270.3837;1.3859E-5;5.9E-7;0;Iridium
14.34219267;0.0002532;86.3942;75.9049;89.7415;270.4071;1.352E-5;5.8E-7;0;Iridium
14.34215717;0.0002561;86.3943;75.7007;88.9553;271.1936;1.3187E-5;5.7E-7;0;Iridium
14.34215717;0.0002561;86.3943;75.7007;88.9553;271.1936;1.3187E-5;5.7E-7;0;Iridium
14.3421567;0.0002572;86.3944;75.5548;88.41;271.739;1.3379E-5;5.7E-7;0;Iridium
14.34215797;0.0002561;86.3944;75.5256;88.7025;271.4465;1.3279E-5;5.7E-7;0;Iridium
14.34215965;0.0002557;86.3945;75.4672;88.8277;271.3211;1.2736E-5;5.5E-7;0;Iridium
14.34216051;0.0002554;86.3946;75.2921;88.6582;271.4906;2.4078E-5;8.7E-7;0;Iridium
14.34216051;0.0002554;86.3946;75.2921;88.6582;271.4906;2.4078E-5;8.7E-7;0;Iridium
14.34216118;0.0002555;86.3946;75.117;88.4645;271.6843;2.5397E-5;9.1E-7;0;Iridium
14.34216132;0.0002555;86.3946;75.0878;88.4736;271.6753;2.5381E-5;9.1E-7;0;Iridium
14.34216063;0.0002554;86.3947;75.0587;88.5314;271.6174;1.5359E-5;6.3E-7;0;Iridium
14.34216063;0.0002554;86.3947;75.0587;88.5314;271.6174;1.5359E-5;6.3E-7;0;Iridium
14.34216193;0.0002553;86.3948;74.7085;88.0532;272.0956;2.0357E-5;7.7E-7;0;Iridium
14.34216223;0.0002552;86.3948;74.6793;88.0262;272.1226;2.1747E-5;8.1E-7;0;Iridium
14.34216244;0.0002552;86.3948;74.6502;87.9919;272.1569;2.2958E-5;8.4E-7;0;Iridium
14.34216233;0.0002545;86.3949;74.4459;87.7858;272.3629;1.7992E-5;7.0E-7;0;Iridium
14.34216233;0.0002545;86.3949;74.4459;87.7858;272.3629;1.7992E-5;7.0E-7;0;Iridium
14.34216321;0.0002545;86.3949;74.3;87.6163;272.5324;2.2349E-5;8.2E-7;0;Iridium
14.34216316;0.0002545;86.3949;74.2708;87.5857;272.5631;2.0792E-5;7.8E-7;0;Iridium
14.34216284;0.0002546;86.3949;74.2417;87.5767;272.572;1.8003E-5;7.0E-7;0;Iridium
14.34216345;0.0002541;86.395;74.0374;87.4556;272.693;1.9559E-5;7.5E-7;0;Iridium
14.34216345;0.0002541;86.395;74.0374;87.4556;272.693;1.9559E-5;7.5E-7;0;Iridium
14.34216397;0.000254;86.3951;73.8332;87.0973;273.0513;1.995E-5;7.6E-7;0;Iridium
14.34216401;0.000254;86.3951;73.804;87.0762;273.0725;2.0018E-5;7.6E-7;0;Iridium
14.34216461;0.0002535;86.3952;73.6289;86.9124;273.2362;2.1766E-5;8.1E-7;0;Iridium
14.34216461;0.0002535;86.3952;73.6289;86.9124;273.2362;2.1766E-5;8.1E-7;0;Iridium
14.34216533;0.0002536;86.3952;73.4539;86.6891;273.4595;2.3577E-5;8.6E-7;0;Iridium
14.34216541;0.0002536;86.3952;73.4247;86.6347;273.5138;2.3193E-5;8.5E-7;0;Iridium
14.34216524;0.0002538;86.3952;73.3955;86.6555;273.4931;2.2165E-5;8.2E-7;0;Iridium
14.34216555;0.0002533;86.3953;73.2497;86.4424;273.7061;2.3268E-5;8.5E-7;0;Iridium
14.34216576;0.0002532;86.3953;73.2205;86.4086;273.7399;2.3563E-5;8.6E-7;0;Iridium
14.34216638;0.0002532;86.3954;73.0455;86.1861;273.9624;2.4659E-5;8.9E-7;0;Iridium
14.34216649;0.0002531;86.3954;73.0163;86.1951;273.9534;2.4382E-5;8.8E-7;0;Iridium
